{
  "type": "FeatureCollection",
  "features": [
    {
      "type": "Feature",
      "properties": {
        "norad_id": 32376,
        "name": "COSMO-SKYMED 2",
        "group": "resource",
        "lat": -30.841332908665727,
        "lon": -177.46585338249153,
        "alt_km": 628.9281847180755,
        "timestamp": "2025-12-22T14:45:57.041503+00:00",
        "meta_object_name": "COSMO-SKYMED 2",
        "meta_object_id": "2007-059A",
        "meta_epoch": "2025-12-22T06:48:17.689248",
        "meta_mean_motion": 14.82153929,
        "meta_eccentricity": 0.00013284,
        "meta_inclination": 97.8804,
        "meta_ra_of_asc_node": 177.4637,
        "meta_arg_of_pericenter": 82.7901,
        "meta_mean_anomaly": 277.3463,
        "meta_ephemeris_type": 0,
        "meta_classification_type": "U",
        "meta_norad_cat_id": 32376,
        "meta_element_set_no": 999,
        "meta_rev_at_epoch": 97579,
        "meta_bstar": 7.1943398e-05,
        "meta_mean_motion_dot": 5.21e-06,
        "meta_mean_motion_ddot": 0,
        "tle_line1": "1 32376U 07059A   25356.28353807  .00000521  00000+0  71943-4 0  9994",
        "tle_line2": "2 32376  97.8804 177.4637 0001328  82.7901 277.3463 14.82153929975798"
      },
      "geometry": {
        "type": "Point",
        "coordinates": [
          -177.46585338249153,
          -30.841332908665727
        ]
      }
    },
    {
      "type": "Feature",
      "properties": {
        "norad_id": 32382,
        "name": "RADARSAT-2",
        "group": "resource",
        "lat": -45.71554955439767,
        "lon": 172.15786885985978,
        "alt_km": 799.1472283567518,
        "timestamp": "2025-12-22T14:45:57.041514+00:00",
        "meta_object_name": "RADARSAT-2",
        "meta_object_id": "2007-061A",
        "meta_epoch": "2025-12-22T06:59:37.264992",
        "meta_mean_motion": 14.29984503,
        "meta_eccentricity": 0.00011343,
        "meta_inclination": 98.579,
        "meta_ra_of_asc_node": 0.7426,
        "meta_arg_of_pericenter": 84.5816,
        "meta_mean_anomaly": 275.5495,
        "meta_ephemeris_type": 0,
        "meta_classification_type": "U",
        "meta_norad_cat_id": 32382,
        "meta_element_set_no": 999,
        "meta_rev_at_epoch": 94067,
        "meta_bstar": 8.1553384e-05,
        "meta_mean_motion_dot": 1.67e-06,
        "meta_mean_motion_ddot": 0,
        "tle_line1": "1 32382U 07061A   25356.29140353  .00000167  00000+0  81553-4 0  9999",
        "tle_line2": "2 32382  98.5790   0.7426 0001134  84.5816 275.5495 14.29984503940676"
      },
      "geometry": {
        "type": "Point",
        "coordinates": [
          172.15786885985978,
          -45.71554955439767
        ]
      }
    },
    {
      "type": "Feature",
      "properties": {
        "norad_id": 32783,
        "name": "CARTOSAT-2A",
        "group": "resource",
        "lat": -5.314562449812181,
        "lon": 46.85992409554164,
        "alt_km": 629.1150075440546,
        "timestamp": "2025-12-22T14:45:57.041524+00:00",
        "meta_object_name": "CARTOSAT-2A",
        "meta_object_id": "2008-021A",
        "meta_epoch": "2025-12-22T06:40:16.183776",
        "meta_mean_motion": 14.78946816,
        "meta_eccentricity": 0.00111525,
        "meta_inclination": 97.7918,
        "meta_ra_of_asc_node": 45.8034,
        "meta_arg_of_pericenter": 333.3477,
        "meta_mean_anomaly": 26.716,
        "meta_ephemeris_type": 0,
        "meta_classification_type": "U",
        "meta_norad_cat_id": 32783,
        "meta_element_set_no": 999,
        "meta_rev_at_epoch": 95265,
        "meta_bstar": -6.345718e-05,
        "meta_mean_motion_dot": -5.19e-06,
        "meta_mean_motion_ddot": 0,
        "tle_line1": "1 32783U 08021A   25356.27796509 -.00000519  00000+0 -63457-4 0  9995",
        "tle_line2": "2 32783  97.7918  45.8034 0011152 333.3477  26.7160 14.78946816952653"
      },
      "geometry": {
        "type": "Point",
        "coordinates": [
          46.85992409554164,
          -5.314562449812181
        ]
      }
    },
    {
      "type": "Feature",
      "properties": {
        "norad_id": 33320,
        "name": "HUANJING 1A (HJ-1A)",
        "group": "resource",
        "lat": 18.257692867642714,
        "lon": -18.04132796017111,
        "alt_km": 605.7956853866554,
        "timestamp": "2025-12-22T14:45:57.041536+00:00",
        "meta_object_name": "HUANJING 1A (HJ-1A)",
        "meta_object_id": "2008-041A",
        "meta_epoch": "2025-12-22T06:35:20.370912",
        "meta_mean_motion": 14.8342357,
        "meta_eccentricity": 0.00194365,
        "meta_inclination": 97.654,
        "meta_ra_of_asc_node": 344.1749,
        "meta_arg_of_pericenter": 4.3363,
        "meta_mean_anomaly": 355.8016,
        "meta_ephemeris_type": 0,
        "meta_classification_type": "U",
        "meta_norad_cat_id": 33320,
        "meta_element_set_no": 999,
        "meta_rev_at_epoch": 93217,
        "meta_bstar": 0.00022554838,
        "meta_mean_motion_dot": 1.806e-05,
        "meta_mean_motion_ddot": 0,
        "tle_line1": "1 33320U 08041A   25356.27454133  .00001806  00000+0  22555-3 0  9990",
        "tle_line2": "2 33320  97.6540 344.1749 0019436   4.3363 355.8016 14.83423570932175"
      },
      "geometry": {
        "type": "Point",
        "coordinates": [
          -18.04132796017111,
          18.257692867642714
        ]
      }
    },
    {
      "type": "Feature",
      "properties": {
        "norad_id": 33321,
        "name": "HUANJING 1B (HJ-1B)",
        "group": "resource",
        "lat": -38.85325050468726,
        "lon": 161.96522226025158,
        "alt_km": 653.3096435500283,
        "timestamp": "2025-12-22T14:45:57.041547+00:00",
        "meta_object_name": "HUANJING 1B (HJ-1B)",
        "meta_object_id": "2008-041B",
        "meta_epoch": "2025-12-22T05:41:04.117344",
        "meta_mean_motion": 14.82844059,
        "meta_eccentricity": 0.00379605,
        "meta_inclination": 97.6398,
        "meta_ra_of_asc_node": 347.8109,
        "meta_arg_of_pericenter": 45.6711,
        "meta_mean_anomaly": 314.7604,
        "meta_ephemeris_type": 0,
        "meta_classification_type": "U",
        "meta_norad_cat_id": 33321,
        "meta_element_set_no": 999,
        "meta_rev_at_epoch": 93218,
        "meta_bstar": 0.00011606898,
        "meta_mean_motion_dot": 9e-06,
        "meta_mean_motion_ddot": 0,
        "tle_line1": "1 33321U 08041B   25356.23685321  .00000900  00000+0  11607-3 0  9992",
        "tle_line2": "2 33321  97.6398 347.8109 0037960  45.6711 314.7604 14.82844059932180"
      },
      "geometry": {
        "type": "Point",
        "coordinates": [
          161.96522226025158,
          -38.85325050468726
        ]
      }
    },
    {
      "type": "Feature",
      "properties": {
        "norad_id": 33331,
        "name": "GEOEYE 1",
        "group": "resource",
        "lat": -74.63423994068238,
        "lon": 99.0900717559049,
        "alt_km": 683.7736533368688,
        "timestamp": "2025-12-22T14:45:57.041558+00:00",
        "meta_object_name": "GEOEYE 1",
        "meta_object_id": "2008-042A",
        "meta_epoch": "2025-12-22T05:16:45.712128",
        "meta_mean_motion": 14.64712591,
        "meta_eccentricity": 0.00028801,
        "meta_inclination": 98.124,
        "meta_ra_of_asc_node": 67.3809,
        "meta_arg_of_pericenter": 243.4794,
        "meta_mean_anomaly": 116.6113,
        "meta_ephemeris_type": 0,
        "meta_classification_type": "U",
        "meta_norad_cat_id": 33331,
        "meta_element_set_no": 999,
        "meta_rev_at_epoch": 92424,
        "meta_bstar": 0.0001156156,
        "meta_mean_motion_dot": 5.68e-06,
        "meta_mean_motion_ddot": 0,
        "tle_line1": "1 33331U 08042A   25356.21997352  .00000568  00000+0  11562-3 0  9992",
        "tle_line2": "2 33331  98.1240  67.3809 0002880 243.4794 116.6113 14.64712591924243"
      },
      "geometry": {
        "type": "Point",
        "coordinates": [
          99.0900717559049,
          -74.63423994068238
        ]
      }
    },
    {
      "type": "Feature",
      "properties": {
        "norad_id": 33396,
        "name": "THEOS",
        "group": "resource",
        "lat": -4.52785444059085,
        "lon": 55.09894584246742,
        "alt_km": 828.6279557907174,
        "timestamp": "2025-12-22T14:45:57.041569+00:00",
        "meta_object_name": "THEOS",
        "meta_object_id": "2008-049A",
        "meta_epoch": "2025-12-22T06:19:56.817984",
        "meta_mean_motion": 14.20097968,
        "meta_eccentricity": 0.00012082,
        "meta_inclination": 98.5857,
        "meta_ra_of_asc_node": 54.0725,
        "meta_arg_of_pericenter": 94.2321,
        "meta_mean_anomaly": 265.8994,
        "meta_ephemeris_type": 0,
        "meta_classification_type": "U",
        "meta_norad_cat_id": 33396,
        "meta_element_set_no": 999,
        "meta_rev_at_epoch": 89285,
        "meta_bstar": -2.8730201e-05,
        "meta_mean_motion_dot": -1.04e-06,
        "meta_mean_motion_ddot": 0,
        "tle_line1": "1 33396U 08049A   25356.26385206 -.00000104  00000+0 -28730-4 0  9998",
        "tle_line2": "2 33396  98.5857  54.0725 0001208  94.2321 265.8994 14.20097968892854"
      },
      "geometry": {
        "type": "Point",
        "coordinates": [
          55.09894584246742,
          -4.52785444059085
        ]
      }
    }
  ]
}